[{"OBJECT_NAME":"STARLINK-4255","OBJECT_ID":"2022-076T","EPOCH":"2026-03-09T19:06:22.614048","MEAN_MOTION":15.08841248,"ECCENTRICITY":0.00016088,"INCLINATION":53.217,"RA_OF_ASC_NODE":93.6442,"ARG_OF_PERICENTER":73.3549,"MEAN_ANOMALY":286.7619,"EPHEMERIS_TYPE":0,"CLASSIFICATION_TYPE":"U","NORAD_CAT_ID":53003,"ELEMENT_SET_NO":999,"REV_AT_EPOCH":20286,"BSTAR":4.757932e-5,"MEAN_MOTION_DOT":4.69e-6,"MEAN_MOTION_DDOT":0},{"OBJECT_NAME":"IRIDIUM 5","OBJECT_ID":"1997-020D","EPOCH":"2026-03-09T18:04:20.752608","MEAN_MOTION":14.97634702,"ECCENTRICITY":0.00996159,"INCLINATION":86.3893,"RA_OF_ASC_NODE":320.9794,"ARG_OF_PERICENTER":262.9032,"MEAN_ANOMALY":96.0864,"EPHEMERIS_TYPE":0,"CLASSIFICATION_TYPE":"U","NORAD_CAT_ID":24795,"ELEMENT_SET_NO":999,"REV_AT_EPOCH":52516,"BSTAR":0.00037671843,"MEAN_MOTION_DOT":4.91e-5,"MEAN_MOTION_DDOT":0}]
